{
  "type": "FeatureCollection",
  "features": [
    {
      "type": "Feature",
      "properties": {
        "norad_id": 28890,
        "name": "BEIJING 1",
        "group": "dmc",
        "lat": -15.643338543641677,
        "lon": 106.3939464755839,
        "alt_km": 697.4874149002972,
        "timestamp": "2025-12-02T13:52:16.942151+00:00",
        "meta_object_name": "BEIJING 1",
        "meta_object_id": "2005-043A",
        "meta_epoch": "2025-12-02T07:22:46.091424",
        "meta_mean_motion": 14.63349891,
        "meta_eccentricity": 0.00147726,
        "meta_inclination": 98.2649,
        "meta_ra_of_asc_node": 103.7902,
        "meta_arg_of_pericenter": 173.0999,
        "meta_mean_anomaly": 187.0409,
        "meta_ephemeris_type": 0,
        "meta_classification_type": "U",
        "meta_norad_cat_id": 28890,
        "meta_element_set_no": 999,
        "meta_rev_at_epoch": 7185,
        "meta_bstar": 0.00012580272,
        "meta_mean_motion_dot": 6.02e-06,
        "meta_mean_motion_ddot": 0,
        "tle_line1": "1 28890U 05043A   25336.30747791  .00000602  00000+0  12580-3 0  9992",
        "tle_line2": "2 28890  98.2649 103.7902 0014772 173.0999 187.0409 14.63349891 71856"
      },
      "geometry": {
        "type": "Point",
        "coordinates": [
          106.3939464755839,
          -15.643338543641677
        ]
      }
    },
    {
      "type": "Feature",
      "properties": {
        "norad_id": 33320,
        "name": "HUANJING 1A (HJ-1A)",
        "group": "dmc",
        "lat": 0.8520057186527898,
        "lon": -34.81289445896646,
        "alt_km": 615.5259150810616,
        "timestamp": "2025-12-02T13:52:16.942174+00:00",
        "meta_object_name": "HUANJING 1A (HJ-1A)",
        "meta_object_id": "2008-041A",
        "meta_epoch": "2025-12-02T07:23:29.992992",
        "meta_mean_motion": 14.83340591,
        "meta_eccentricity": 0.00206811,
        "meta_inclination": 97.6535,
        "meta_ra_of_asc_node": 325.043,
        "meta_arg_of_pericenter": 66.6475,
        "meta_mean_anomaly": 293.6913,
        "meta_ephemeris_type": 0,
        "meta_classification_type": "U",
        "meta_norad_cat_id": 33320,
        "meta_element_set_no": 999,
        "meta_rev_at_epoch": 92921,
        "meta_bstar": 0.00024703614,
        "meta_mean_motion_dot": 1.98e-05,
        "meta_mean_motion_ddot": 0,
        "tle_line1": "1 33320U 08041A   25336.30798603  .00001980  00000+0  24704-3 0  9996",
        "tle_line2": "2 33320  97.6535 325.0430 0020681  66.6475 293.6913 14.83340591929210"
      },
      "geometry": {
        "type": "Point",
        "coordinates": [
          -34.81289445896646,
          0.8520057186527898
        ]
      }
    },
    {
      "type": "Feature",
      "properties": {
        "norad_id": 33321,
        "name": "HUANJING 1B (HJ-1B)",
        "group": "dmc",
        "lat": -62.44509878233703,
        "lon": 134.11910343649356,
        "alt_km": 646.7741659365302,
        "timestamp": "2025-12-02T13:52:16.942187+00:00",
        "meta_object_name": "HUANJING 1B (HJ-1B)",
        "meta_object_id": "2008-041B",
        "meta_epoch": "2025-12-02T06:18:06.792768",
        "meta_mean_motion": 14.82777192,
        "meta_eccentricity": 0.00381363,
        "meta_inclination": 97.6395,
        "meta_ra_of_asc_node": 328.7237,
        "meta_arg_of_pericenter": 108.8738,
        "meta_mean_anomaly": 251.6618,
        "meta_ephemeris_type": 0,
        "meta_classification_type": "U",
        "meta_norad_cat_id": 33321,
        "meta_element_set_no": 999,
        "meta_rev_at_epoch": 92922,
        "meta_bstar": 0.00019698886,
        "meta_mean_motion_dot": 1.561e-05,
        "meta_mean_motion_ddot": 0,
        "tle_line1": "1 33321U 08041B   25336.26257862  .00001561  00000+0  19699-3 0  9991",
        "tle_line2": "2 33321  97.6395 328.7237 0038136 108.8738 251.6618 14.82777192929222"
      },
      "geometry": {
        "type": "Point",
        "coordinates": [
          134.11910343649356,
          -62.44509878233703
        ]
      }
    },
    {
      "type": "Feature",
      "properties": {
        "norad_id": 33446,
        "name": "YAOGAN-4",
        "group": "dmc",
        "lat": 19.935617479640335,
        "lon": 89.67081040366536,
        "alt_km": 630.8192189055571,
        "timestamp": "2025-12-02T13:52:16.942200+00:00",
        "meta_object_name": "YAOGAN-4",
        "meta_object_id": "2008-061A",
        "meta_epoch": "2025-12-02T06:40:27.864192",
        "meta_mean_motion": 14.82628721,
        "meta_eccentricity": 0.00144944,
        "meta_inclination": 97.9168,
        "meta_ra_of_asc_node": 266.481,
        "meta_arg_of_pericenter": 358.2304,
        "meta_mean_anomaly": 1.8855,
        "meta_ephemeris_type": 0,
        "meta_classification_type": "U",
        "meta_norad_cat_id": 33446,
        "meta_element_set_no": 999,
        "meta_rev_at_epoch": 91648,
        "meta_bstar": 0.00026740206,
        "meta_mean_motion_dot": 2.104e-05,
        "meta_mean_motion_ddot": 0,
        "tle_line1": "1 33446U 08061A   25336.27810028  .00002104  00000+0  26740-3 0  9990",
        "tle_line2": "2 33446  97.9168 266.4810 0014494 358.2304   1.8855 14.82628721916482"
      },
      "geometry": {
        "type": "Point",
        "coordinates": [
          89.67081040366536,
          19.935617479640335
        ]
      }
    },
    {
      "type": "Feature",
      "properties": {
        "norad_id": 35681,
        "name": "DEIMOS-1",
        "group": "dmc",
        "lat": -31.406090918690232,
        "lon": -47.09262389288938,
        "alt_km": 652.211369104728,
        "timestamp": "2025-12-02T13:52:16.942211+00:00",
        "meta_object_name": "DEIMOS-1",
        "meta_object_id": "2009-041A",
        "meta_epoch": "2025-12-02T08:01:49.848672",
        "meta_mean_motion": 14.7492654,
        "meta_eccentricity": 0.00026654,
        "meta_inclination": 97.7145,
        "meta_ra_of_asc_node": 137.4228,
        "meta_arg_of_pericenter": 98.4794,
        "meta_mean_anomaly": 261.6718,
        "meta_ephemeris_type": 0,
        "meta_classification_type": "U",
        "meta_norad_cat_id": 35681,
        "meta_element_set_no": 999,
        "meta_rev_at_epoch": 87786,
        "meta_bstar": 0.00015613794,
        "meta_mean_motion_dot": 1.001e-05,
        "meta_mean_motion_ddot": 0,
        "tle_line1": "1 35681U 09041A   25336.33460473  .00001001  00000+0  15614-3 0  9997",
        "tle_line2": "2 35681  97.7145 137.4228 0002665  98.4794 261.6718 14.74926540877864"
      },
      "geometry": {
        "type": "Point",
        "coordinates": [
          -47.09262389288938,
          -31.406090918690232
        ]
      }
    },
    {
      "type": "Feature",
      "properties": {
        "norad_id": 35683,
        "name": "UK-DMC 2",
        "group": "dmc",
        "lat": -22.196977357609548,
        "lon": -71.46115071778443,
        "alt_km": 648.8514773677152,
        "timestamp": "2025-12-02T13:52:16.942223+00:00",
        "meta_object_name": "UK-DMC 2",
        "meta_object_id": "2009-041C",
        "meta_epoch": "2025-12-02T08:04:30.379008",
        "meta_mean_motion": 14.75583931,
        "meta_eccentricity": 0.00012688,
        "meta_inclination": 97.8556,
        "meta_ra_of_asc_node": 111.5337,
        "meta_arg_of_pericenter": 102.817,
        "meta_mean_anomaly": 257.3182,
        "meta_ephemeris_type": 0,
        "meta_classification_type": "U",
        "meta_norad_cat_id": 35683,
        "meta_element_set_no": 999,
        "meta_rev_at_epoch": 87753,
        "meta_bstar": 0.00021424822,
        "meta_mean_motion_dot": 1.412e-05,
        "meta_mean_motion_ddot": 0,
        "tle_line1": "1 35683U 09041C   25336.33646272  .00001412  00000+0  21425-3 0  9995",
        "tle_line2": "2 35683  97.8556 111.5337 0001268 102.8170 257.3182 14.75583931877538"
      },
      "geometry": {
        "type": "Point",
        "coordinates": [
          -71.46115071778443,
          -22.196977357609548
        ]
      }
    },
    {
      "type": "Feature",
      "properties": {
        "norad_id": 40715,
        "name": "DMC3-FM1",
        "group": "dmc",
        "lat": -71.01969534685655,
        "lon": 1.072277410211382,
        "alt_km": 620.5530335054173,
        "timestamp": "2025-12-02T13:52:16.942233+00:00",
        "meta_object_name": "DMC3-FM1",
        "meta_object_id": "2015-032A",
        "meta_epoch": "2025-12-02T06:16:14.306880",
        "meta_mean_motion": 14.85410354,
        "meta_eccentricity": 0.00054279,
        "meta_inclination": 97.67,
        "meta_ra_of_asc_node": 203.8349,
        "meta_arg_of_pericenter": 358.2138,
        "meta_mean_anomaly": 1.9057,
        "meta_ephemeris_type": 0,
        "meta_classification_type": "U",
        "meta_norad_cat_id": 40715,
        "meta_element_set_no": 999,
        "meta_rev_at_epoch": 56067,
        "meta_bstar": 0.00013303849,
        "meta_mean_motion_dot": 1.095e-05,
        "meta_mean_motion_ddot": 0,
        "tle_line1": "1 40715U 15032A   25336.26127670  .00001095  00000+0  13304-3 0  9996",
        "tle_line2": "2 40715  97.6700 203.8349 0005427 358.2138   1.9057 14.85410354560676"
      },
      "geometry": {
        "type": "Point",
        "coordinates": [
          1.072277410211382,
          -71.01969534685655
        ]
      }
    },
    {
      "type": "Feature",
      "properties": {
        "norad_id": 40716,
        "name": "DMC3-FM2",
        "group": "dmc",
        "lat": 46.98543907459412,
        "lon": 33.88787818037657,
        "alt_km": 610.9720503238232,
        "timestamp": "2025-12-02T13:52:16.942244+00:00",
        "meta_object_name": "DMC3-FM2",
        "meta_object_id": "2015-032B",
        "meta_epoch": "2025-12-02T06:48:38.997216",
        "meta_mean_motion": 14.85411811,
        "meta_eccentricity": 0.00060744,
        "meta_inclination": 97.6757,
        "meta_ra_of_asc_node": 205.293,
        "meta_arg_of_pericenter": 2.1352,
        "meta_mean_anomaly": 357.9888,
        "meta_ephemeris_type": 0,
        "meta_classification_type": "U",
        "meta_norad_cat_id": 40716,
        "meta_element_set_no": 999,
        "meta_rev_at_epoch": 56067,
        "meta_bstar": 0.00014258823,
        "meta_mean_motion_dot": 1.177e-05,
        "meta_mean_motion_ddot": 0,
        "tle_line1": "1 40716U 15032B   25336.28378469  .00001177  00000+0  14259-3 0  9994",
        "tle_line2": "2 40716  97.6757 205.2930 0006074   2.1352 357.9888 14.85411811560678"
      },
      "geometry": {
        "type": "Point",
        "coordinates": [
          33.88787818037657,
          46.98543907459412
        ]
      }
    },
    {
      "type": "Feature",
      "properties": {
        "norad_id": 40717,
        "name": "DMC3-FM3",
        "group": "dmc",
        "lat": 16.833641269920086,
        "lon": -155.13728362396972,
        "alt_km": 609.2300775897666,
        "timestamp": "2025-12-02T13:52:16.942255+00:00",
        "meta_object_name": "DMC3-FM3",
        "meta_object_id": "2015-032C",
        "meta_epoch": "2025-12-02T05:42:41.834016",
        "meta_mean_motion": 14.854053,
        "meta_eccentricity": 0.00054308,
        "meta_inclination": 97.6812,
        "meta_ra_of_asc_node": 206.875,
        "meta_arg_of_pericenter": 4.418,
        "meta_mean_anomaly": 355.7083,
        "meta_ephemeris_type": 0,
        "meta_classification_type": "U",
        "meta_norad_cat_id": 40717,
        "meta_element_set_no": 999,
        "meta_rev_at_epoch": 56067,
        "meta_bstar": 0.00010255731,
        "meta_mean_motion_dot": 8.32e-06,
        "meta_mean_motion_ddot": 0,
        "tle_line1": "1 40717U 15032C   25336.23798419  .00000832  00000+0  10256-3 0  9991",
        "tle_line2": "2 40717  97.6812 206.8750 0005430   4.4180 355.7083 14.85405300560676"
      },
      "geometry": {
        "type": "Point",
        "coordinates": [
          -155.13728362396972,
          16.833641269920086
        ]
      }
    }
  ]
}